KUIPER-00074            
1 64821U 25151F   25337.47322605  .00007750  00000+0  10426-2 0  9997
2 64821  51.9020 356.0568 0013271 314.4144  45.5731 14.79963219 21197
KUIPER-00075            
1 64822U 25151G   25337.36281809  .00074401  00000+0  18164-2 0  9990
2 64822  51.8754 329.6396 0003582 314.9615  45.1082 15.40174677 21554
KUIPER-00076            
1 64823U 25151H   25337.33540152 -.00011109  00000+0 -14310-2 0  9994
2 64823  51.9052 359.1576 0006436 296.2943  63.7358 14.79900565 21143
KUIPER-00077            
1 64824U 25151J   25337.46513897  .00002858  00000+0  40423-3 0  9999
2 64824  51.9032   3.5934 0006090 264.5674  95.4593 14.79889142 21099
KUIPER-00078            
1 64825U 25151K   25337.43401354 -.00002010  00000+0 -23446-3 0  9999
2 64825  51.9022   1.2229 0008395 327.0849  32.9590 14.79901820 21125
KUIPER-00079            
1 64826U 25151L   25337.46270630  .00005401  00000+0  73177-3 0  9995
2 64826  51.8996   6.0880 0011569 282.7734  77.1935 14.80204503 22253
KUIPER-00080            
1 64827U 25151M   25337.49620800  .00000652  00000+0  11479-3 0  9997
2 64827  51.9011   5.9406 0005443 295.0796  64.9601 14.79865833 21063
KUIPER-00082            
1 64828U 25151N   25337.34044030 -.00078481  00000+0 -10421-1 0  9998
2 64828  51.9023 354.1384 0004793 315.5904  44.4673 14.79782653 21214
KUIPER-00083            
1 64829U 25151P   25337.33269956  .00007391  00000+0  99629-3 0  9993
2 64829  51.9017   1.6731 0011015 281.9755  77.9972 14.79955001 22294
KUIPER-00084            
1 64830U 25151Q   25337.38950066 -.00004254  00000+0 -52831-3 0  9990
2 64830  51.9006  11.4095 0011603 257.0038 102.9629 14.79938280 20978
KUIPER-00085            
1 64831U 25151R   25337.30714552  .00007195  00000+0  97115-3 0  9990
2 64831  51.9049 354.3048 0007118 295.3412  64.6813 14.79955630 21204
KUIPER-00086            
1 64832U 25151S   25337.49885529  .00003319  00000+0  46382-3 0  9998
2 64832  51.9020   3.4447 0010993 281.8822  78.0908 14.79949665 21091
KUIPER-00087            
1 64833U 25151T   25337.45023542  .00005852  00000+0  79579-3 0  9992
2 64833  51.9002 346.1553 0000782 348.2551  11.8393 14.79939580 21323
KUIPER-00089            
1 64834U 25151U   25337.30982049 -.00017939  00000+0 -23283-2 0  9994
2 64834  51.9029 351.7769 0001252  37.3630 322.7419 14.79968480 21246
KUIPER-00090            
1 64835U 25151V   25337.42949713 -.00002959  00000+0 -37276-3 0  9993
2 64835  51.8994 342.8631 0004284  40.5722 319.5558 14.78403663 21370
KUIPER-00091            
1 64836U 25151W   25337.44759071  .00008003  00000+0  10777-2 0  9992
2 64836  51.9016 348.6759 0007911 336.1152  23.9442 14.79913761 21298
KUIPER-00092            
1 64837U 25151X   25337.43901186  .00007431  00000+0  99944-3 0  9996
2 64837  51.9018 356.2047 0006478 284.9439  75.0806 14.80066884 22404
KUIPER-00093            
1 64838U 25151Y   25337.43670941  .00006545  00000+0  88541-3 0  9995
2 64838  51.8994 358.7083 0014007 290.5684  69.3775 14.79949097 21152
KUIPER-00094            
1 64839U 25151Z   25337.29139235  .00012945  00000+0  93368-3 0  9990
2 64839  51.8906 345.7502 0004783 323.4841  36.5805 15.04422225 21326
KUIPER-00081            
1 65132U 25171A   25337.50003471 -.00828132  00000+0 -54969-1 0  9992
2 65132  51.8874 216.6015 0003855 192.4963 329.2791 15.09352521  3906
KUIPER-00088            
1 65133U 25171B   25337.39855632  .00003675  00000+0  55050-3 0  9993
2 65133  51.8995 231.3086 0008450 161.0921 199.0355 14.76693056 18533
KUIPER-00095            
1 65134U 25171C   25337.50003471 -.01510611  00000+0 -11351+0 0  9991
2 65134  51.8852 217.6288 0004887 160.5483 130.0693 15.05644230  4420
KUIPER-00096            
1 65135U 25171D   25337.50003471  .00014902  00000+0  19786-2 0  9994
2 65135  51.8980 223.4374 0012337 190.1139  92.1406 14.79905638  2105
KUIPER-00097            
1 65136U 25171E   25337.43939840  .00006448  00000+0  87528-3 0  9991
2 65136  51.9008 226.2640 0010868 184.9286 175.1571 14.79847226 18599
KUIPER-00098            
1 65137U 25171F   25337.10423497  .00006529  00000+0  88394-3 0  9994
2 65137  51.8997 230.1873 0007955 171.4587 188.6512 14.79954209 17869
KUIPER-00099            
1 65138U 25171G   25337.50003471 -.01232128  00000+0 -11132+0 0  9996
2 65138  51.8948 219.2560 0005616 210.9927 109.3189 14.98044336  5809
KUIPER-00100            
1 65139U 25171H   25337.50003471 -.01012884  00000+0 -74023-1 0  9992
2 65139  51.8883 217.6845 0002447 216.6793 136.6819 15.05949543  5412
KUIPER-00102            
1 65140U 25171J   25337.50003471 -.01509470  00000+0 -13903+0 0  9994
2 65140  51.8936 219.1156 0012242 180.8065  93.0069 14.97350695  4891
KUIPER-00103            
1 65141U 25171K   25337.12992987  .00007414  00000+0  99948-3 0  9997
2 65141  51.8992 237.5668 0006343 167.7991 192.3126 14.79970307 18411
KUIPER-00104            
1 65142U 25171L   25337.40931433  .00001519  00000+0  17563-3 0  9991
2 65142  51.8951 222.9821 0002992 194.5077 165.5804 14.91228512 18643
KUIPER-00105            
1 65143U 25171M   25337.43925722 -.00000866  00000+0 -83966-4 0  9996
2 65143  51.9028 231.2679 0013229 144.3790 215.8058 14.79937840 18539
KUIPER-00106            
1 65144U 25171N   25337.43701753  .00008694  00000+0  78056-3 0  9991
2 65144  51.8934 232.1326 0009848 137.6148 222.5584 14.96374540 18527
KUIPER-00107            
1 65145U 25171P   25337.50003471  .00035077  00000+0  21852-2 0  9998
2 65145  51.8849 216.5606 0007143 189.6175 268.3945 15.09226852  4074
KUIPER-00108            
1 65146U 25171Q   25337.07324867 -.00002624  00000+0 -31438-3 0  9992
2 65146  51.9021 227.8241 0009066 151.6526 208.4932 14.79988831 18550
KUIPER-00109            
1 65147U 25171R   25337.50003471  .00016402  00000+0  17162-2 0  9990
2 65147  51.8950 221.1425 0013085 170.4518 298.9961 14.89671256  5113
KUIPER-00110            
1 65148U 25171S   25337.44815297  .00006439  00000+0  93723-3 0  9998
2 65148  51.8990 233.4928 0011569 147.9680 212.1986 14.76855306 18492
KUIPER-00111            
1 65149U 25171T   25337.43113133  .00006546  00000+0  88528-3 0  9994
2 65149  51.8981 238.7266 0009812 153.4853 206.6613 14.79990742 18423
KUIPER-00112            
1 65150U 25171U   25337.50003471  .00025224  00000+0  28295-2 0  9995
2 65150  51.8968 221.0921 0008595 206.8961 164.2310 14.86616947  4959
KUIPER-00114            
1 65151U 25171V   25337.42854248  .00005755  00000+0  78323-3 0  9998
2 65151  51.8998 241.2734 0006757 142.5047 217.6387 14.79933688 18383
KUIPER-00115            
1 65152U 25171W   25337.09887593 -.00003596  00000+0 -44199-3 0  9998
2 65152  51.9009 235.2096 0010090 166.2324 193.8915 14.79958014 18447
KUIPER-00116            
1 65153U 25171X   25337.12719295 -.00006043  00000+0 -76289-3 0  9991
2 65153  51.9017 240.1261 0011298 134.0310 226.1585 14.79947905 18377
KUIPER-00118            
1 65154U 25171Y   25337.12452350 -.00003312  00000+0 -40557-3 0  9993
2 65154  51.9010 242.5944 0002044 128.5467 231.5678 14.79939920 18343
KUIPER-00119            
1 65155U 25171Z   25337.40816096  .00001650  00000+0  24575-3 0  9999
2 65155  51.9017 228.9261 0008783 157.8456 202.2888 14.79884355 18552
KUIPER-00120            
1 65762U 25217A   25337.40288449  .00007694  00000+0  76494-3 0  9990
2 65762  51.8930 118.4874 0016391 333.7369  26.2766 14.92419395 10480
KUIPER-00132            
1 65763U 25217B   25337.40632785  .00050109  00000+0  13510-2 0  9995
2 65763  51.8621 109.8851 0006124 345.5069  14.5741 15.37296807 10606
KUIPER-00133            
1 65764U 25217C   25337.50003471 -.00033156  00000+0 -43268-2 0  9999
2 65764  51.9012 118.4269 0010908   6.2835 125.4703 14.80027145  5617
KUIPER-00139            
1 65765U 25217D   25337.50003471 -.00027689  00000+0 -21046-2 0  9994
2 65765  51.9005 114.2084 0007333 348.4595  40.4437 15.01478121  5248
KUIPER-00142            
1 65766U 25217E   25337.50003471 -.01757058  00000+0 -56426-1 0  9995
2 65766  51.8699 109.0372 0003161 325.4110  46.1520 15.35006622  3392
KUIPER-00145            
1 65767U 25217F   25337.50003471 -.01010503  00000+0 -43952-1 0  9993
2 65767  51.8787 109.7272 0007297 308.1820  60.9645 15.24522194  4665
KUIPER-00147            
1 65768U 25217G   25337.50003471 -.00008965  00000+0 -45022-3 0  9994
2 65768  51.8773 110.8906 0009371 335.8074 156.1889 15.15576014  4535
KUIPER-00148            
1 65769U 25217H   25337.50003471 -.00761380  00000+0 -36853-1 0  9992
2 65769  51.8698 110.9225 0007746   9.1091 156.5906 15.20602947  3063
KUIPER-00150            
1 65770U 25217J   25337.50003471 -.00061607  00000+0 -67436-2 0  9991
2 65770  51.8931 116.1308 0009093 359.6445  25.1290 14.87582367  5040
KUIPER-00151            
1 65771U 25217K   25337.50003471 -.00891847  00000+0 -52635-1 0  9993
2 65771  51.8772 111.4198 0002113 324.5492 346.4802 15.13765541  5414
KUIPER-00152            
1 65772U 25217L   25337.46275191  .00055947  00000+0  14417-2 0  9997
2 65772  51.8703 108.8226 0001820 284.9685  75.1101 15.38656886 10623
KUIPER-00153            
1 65773U 25217M   25337.10764725  .00012804  00000+0  77640-3 0  9998
2 65773  51.8768 116.8366 0012019 345.4864  14.5765 15.10817576 10485
KUIPER-00155            
1 65774U 25217N   25337.40440833  .00045231  00000+0  12296-2 0  9998
2 65774  51.8649 109.8836 0006847 335.3785  24.6873 15.37083440 10600
KUIPER-00156            
1 65775U 25217P   25337.40659110  .00048948  00000+0  12697-2 0  9992
2 65775  51.8705 109.1928 0002225 288.5286  71.5460 15.38513158 10619
KUIPER-00158            
1 65776U 25217Q   25337.50003471 -.01022375  00000+0 -74481-1 0  9994
2 65776  51.9063 112.6830 0004910 317.1303 102.4387 15.06073831  5824
KUIPER-00163            
1 65777U 25217R   25337.50003471 -.01045793  00000+0 -93141-1 0  9998
2 65777  51.8905 114.2955 0010510 357.0245 230.0385 14.98534975  4327
